LIME                    
1 62648U 25009AR  26068.73906781  .00013254  00000+0  47723-3 0  9995
2 62648  97.3985 151.4831 0001635  35.9029 324.2320 15.28703313 63766
STARLINK-32946          
1 63196U 25048P   26068.47550516  .00032162  00000+0  11731-2 0  9997
2 63196  43.0013  90.5347 0001440 268.9113  91.1574 15.27580841 57016
